start=new Date('2022-10-01T00:00:00.000Z').valueOf();
sats=[{"BSTAR":"0.00005281200000","CENTER_NAME":"EARTH","MEAN_MOTION_DOT":"0.00000553","TIME_SYSTEM":"UTC","FILE":"3587966","SITE":"AFETR","REV_AT_EPOCH":"4592","REF_FRAME":"TEME","ARG_OF_PERICENTER":"51.4050","ECCENTRICITY":"0.00017870","MEAN_MOTION_DDOT":"0.0000000000000","EPHEMERIS_TYPE":"0","OBJECT_ID":"2021-115T","PERIOD":"95.437","OBJECT_TYPE":"PAYLOAD","OBJECT_NAME":"STARLINK-3244","TLE_LINE1":"1 49741U 21115T   22273.70446909  .00000553  00000-0  52812-4 0  9995","ELEMENT_SET_NO":"999","TLE_LINE2":"2 49741  53.2172  27.4507 0001787  51.4050 308.7102 15.08851433 45929","EPOCH":"2022-09-30T16:54:26.129376","RA_OF_ASC_NODE":"27.4507","COUNTRY_CODE":"US","PERIAPSIS":"538.474","MEAN_MOTION":"15.08851433","DECAY_DATE":null,"GP_ID":"213906339","RCS_SIZE":"LARGE","NORAD_CAT_ID":"49741","CLASSIFICATION_TYPE":"U","MEAN_ELEMENT_THEORY":"SGP4","LAUNCH_DATE":"2021-12-02","MEAN_ANOMALY":"308.7102","APOAPSIS":"540.947","INCLINATION":"53.2172","SEMIMAJOR_AXIS":"6917.845"},{"NORAD_CAT_ID":"49742","MEAN_ANOMALY":"314.2717","CLASSIFICATION_TYPE":"U","MEAN_ELEMENT_THEORY":"SGP4","LAUNCH_DATE":"2021-12-02","SEMIMAJOR_AXIS":"6917.902","APOAPSIS":"541.075","INCLINATION":"53.2179","RA_OF_ASC_NODE":"26.7991","COUNTRY_CODE":"US","MEAN_MOTION":"15.08832878","PERIAPSIS":"538.459","RCS_SIZE":"LARGE","DECAY_DATE":null,"GP_ID":"213907590","ECCENTRICITY":"0.00018910","MEAN_MOTION_DDOT":"0.0000000000000","PERIOD":"95.438","OBJECT_ID":"2021-115U","OBJECT_TYPE":"PAYLOAD","EPHEMERIS_TYPE":"0","TLE_LINE1":"1 49742U 21115U   22273.85167573  .00004194  00000-0  28149-3 0  9999","OBJECT_NAME":"STARLINK-3202","EPOCH":"2022-09-30T20:26:24.783072","ELEMENT_SET_NO":"999","TLE_LINE2":"2 49742  53.2179  26.7991 0001891  45.8430 314.2717 15.08832878 45949","BSTAR":"0.00028149000000","CENTER_NAME":"EARTH","FILE":"3587966","SITE":"AFETR","MEAN_MOTION_DOT":"0.00004194","TIME_SYSTEM":"UTC","REF_FRAME":"TEME","ARG_OF_PERICENTER":"45.8430","REV_AT_EPOCH":"4594"},{"BSTAR":"0.00013183000000","CENTER_NAME":"EARTH","SITE":"AFETR","FILE":"3587966","TIME_SYSTEM":"UTC","MEAN_MOTION_DOT":"0.00001811","REF_FRAME":"TEME","ARG_OF_PERICENTER":"49.3539","REV_AT_EPOCH":"4592","MEAN_MOTION_DDOT":"0.0000000000000","ECCENTRICITY":"0.00018670","OBJECT_TYPE":"PAYLOAD","PERIOD":"95.437","OBJECT_ID":"2021-115V","EPHEMERIS_TYPE":"0","TLE_LINE1":"1 49743U 21115V   22273.70815868  .00001811  00000-0  13183-3 0  9996","OBJECT_NAME":"STARLINK-3239","EPOCH":"2022-09-30T16:59:44.909952","TLE_LINE2":"2 49743  53.2170  27.4424 0001867  49.3539 310.7615 15.08843116 45925","ELEMENT_SET_NO":"999","RA_OF_ASC_NODE":"27.4424","COUNTRY_CODE":"US","MEAN_MOTION":"15.08843116","PERIAPSIS":"538.444","RCS_SIZE":"LARGE","GP_ID":"213907818","DECAY_DATE":null,"NORAD_CAT_ID":"49743","MEAN_ANOMALY":"310.7615","LAUNCH_DATE":"2021-12-02","MEAN_ELEMENT_THEORY":"SGP4","CLASSIFICATION_TYPE":"U","SEMIMAJOR_AXIS":"6917.871","INCLINATION":"53.2170","APOAPSIS":"541.027"},{"REV_AT_EPOCH":"4594","REF_FRAME":"TEME","ARG_OF_PERICENTER":"49.9361","TIME_SYSTEM":"UTC","MEAN_MOTION_DOT":"0.00008245","SITE":"AFETR","FILE":"3587966","CENTER_NAME":"EARTH","BSTAR":"0.00053522000000","ELEMENT_SET_NO":"999","TLE_LINE2":"2 49744  53.2174  26.7596 0001676  49.9361 310.1778 15.08860005 45941","EPOCH":"2022-09-30T20:37:00.484032","OBJECT_NAME":"STARLINK-3231","TLE_LINE1":"1 49744U 21115W   22273.85903338  .00008245  00000-0  53522-3 0  9992","EPHEMERIS_TYPE":"0","OBJECT_TYPE":"PAYLOAD","PERIOD":"95.436","OBJECT_ID":"2021-115W","MEAN_MOTION_DDOT":"0.0000000000000","ECCENTRICITY":"0.00016760","GP_ID":"213906589","DECAY_DATE":null,"RCS_SIZE":"LARGE","PERIAPSIS":"538.525","MEAN_MOTION":"15.08860005","COUNTRY_CODE":"US","RA_OF_ASC_NODE":"26.7596","INCLINATION":"53.2174","APOAPSIS":"540.844","SEMIMAJOR_AXIS":"6917.819","LAUNCH_DATE":"2021-12-02","MEAN_ELEMENT_THEORY":"SGP4","CLASSIFICATION_TYPE":"U","MEAN_ANOMALY":"310.1778","NORAD_CAT_ID":"49744"},{"MEAN_MOTION":"15.08841022","PERIAPSIS":"538.534","RCS_SIZE":"LARGE","DECAY_DATE":null,"GP_ID":"213906839","RA_OF_ASC_NODE":"27.4155","COUNTRY_CODE":"US","SEMIMAJOR_AXIS":"6917.877","APOAPSIS":"540.950","INCLINATION":"53.2153","NORAD_CAT_ID":"49745","MEAN_ANOMALY":"320.1115","CLASSIFICATION_TYPE":"U","LAUNCH_DATE":"2021-12-02","MEAN_ELEMENT_THEORY":"SGP4","FILE":"3587966","SITE":"AFETR","TIME_SYSTEM":"UTC","MEAN_MOTION_DOT":"0.00011109","ARG_OF_PERICENTER":"40.0005","REF_FRAME":"TEME","REV_AT_EPOCH":"4592","BSTAR":"0.00071495000000","CENTER_NAME":"EARTH","TLE_LINE1":"1 49745U 21115X   22273.71551410  .00011109  00000-0  71495-3 0  9990","OBJECT_NAME":"STARLINK-3241","EPOCH":"2022-09-30T17:10:20.418240","TLE_LINE2":"2 49745  53.2153  27.4155 0001746  40.0005 320.1115 15.08841022 45925","ELEMENT_SET_NO":"999","ECCENTRICITY":"0.00017460","MEAN_MOTION_DDOT":"0.0000000000000","PERIOD":"95.437","OBJECT_ID":"2021-115X","OBJECT_TYPE":"PAYLOAD","EPHEMERIS_TYPE":"0"},{"RA_OF_ASC_NODE":"27.3172","COUNTRY_CODE":"US","PERIAPSIS":"538.493","MEAN_MOTION":"15.08921160","GP_ID":"213907091","DECAY_DATE":null,"RCS_SIZE":"LARGE","NORAD_CAT_ID":"49746","LAUNCH_DATE":"2021-12-02","MEAN_ELEMENT_THEORY":"SGP4","CLASSIFICATION_TYPE":"U","MEAN_ANOMALY":"306.2915","APOAPSIS":"540.502","INCLINATION":"53.2174","SEMIMAJOR_AXIS":"6917.632","BSTAR":"-0.00102680000000","CENTER_NAME":"EARTH","MEAN_MOTION_DOT":"-0.00016629","TIME_SYSTEM":"UTC","SITE":"AFETR","FILE":"3587966","REV_AT_EPOCH":"4592","ARG_OF_PERICENTER":"53.8211","REF_FRAME":"TEME","MEAN_MOTION_DDOT":"0.0000000000000","ECCENTRICITY":"0.00014520","EPHEMERIS_TYPE":"0","OBJECT_TYPE":"PAYLOAD","OBJECT_ID":"2021-115Y","PERIOD":"95.432","TLE_LINE1":"1 49746U 21115Y   22273.73387546 -.00016629  00000-0 -10268-2 0  9994","OBJECT_NAME":"STARLINK-3233","TLE_LINE2":"2 49746  53.2174  27.3172 0001452  53.8211 306.2915 15.08921160 45927","ELEMENT_SET_NO":"999","EPOCH":"2022-09-30T17:36:46.839744"},{"INCLINATION":"53.2184","APOAPSIS":"541.061","SEMIMAJOR_AXIS":"6917.837","CLASSIFICATION_TYPE":"U","LAUNCH_DATE":"2021-12-02","MEAN_ELEMENT_THEORY":"SGP4","MEAN_ANOMALY":"320.6630","NORAD_CAT_ID":"49747","DECAY_DATE":null,"GP_ID":"213907319","RCS_SIZE":"LARGE","PERIAPSIS":"538.343","MEAN_MOTION":"15.08854205","COUNTRY_CODE":"US","RA_OF_ASC_NODE":"27.0700","TLE_LINE2":"2 49747  53.2184  27.0700 0001965  39.4505 320.6630 15.08854205 45938","ELEMENT_SET_NO":"999","EPOCH":"2022-09-30T18:56:19.330368","TLE_LINE1":"1 49747U 21115Z   22273.78911262  .00006513  00000-0  42674-3 0  9994","OBJECT_NAME":"STARLINK-3247","EPHEMERIS_TYPE":"0","PERIOD":"95.437","OBJECT_ID":"2021-115Z","OBJECT_TYPE":"PAYLOAD","ECCENTRICITY":"0.00019650","MEAN_MOTION_DDOT":"0.0000000000000","REV_AT_EPOCH":"4593","REF_FRAME":"TEME","ARG_OF_PERICENTER":"39.4505","MEAN_MOTION_DOT":"0.00006513","TIME_SYSTEM":"UTC","FILE":"3587966","SITE":"AFETR","CENTER_NAME":"EARTH","BSTAR":"0.00042674000000"},{"ELEMENT_SET_NO":"999","TLE_LINE2":"2 49748  53.2171  27.9025 0001960  46.6796 313.4359 15.08847101 45914","EPOCH":"2022-09-30T14:36:40.443552","TLE_LINE1":"1 49748U 21115AA  22273.60880143  .00017524  00000-0  11162-2 0  9990","OBJECT_NAME":"STARLINK-3248","EPHEMERIS_TYPE":"0","OBJECT_TYPE":"PAYLOAD","PERIOD":"95.437","OBJECT_ID":"2021-115AA","MEAN_MOTION_DDOT":"0.0000000000000","ECCENTRICITY":"0.00019600","REV_AT_EPOCH":"4591","ARG_OF_PERICENTER":"46.6796","REF_FRAME":"TEME","MEAN_MOTION_DOT":"0.00017524","TIME_SYSTEM":"UTC","SITE":"AFETR","FILE":"3587966","CENTER_NAME":"EARTH","BSTAR":"0.00111620000000","APOAPSIS":"541.080","INCLINATION":"53.2171","SEMIMAJOR_AXIS":"6917.859","LAUNCH_DATE":"2021-12-02","MEAN_ELEMENT_THEORY":"SGP4","CLASSIFICATION_TYPE":"U","MEAN_ANOMALY":"313.4359","NORAD_CAT_ID":"49748","GP_ID":"213906090","DECAY_DATE":null,"RCS_SIZE":"LARGE","PERIAPSIS":"538.368","MEAN_MOTION":"15.08847101","COUNTRY_CODE":"US","RA_OF_ASC_NODE":"27.9025"},{"SITE":"AFETR","FILE":"3587966","MEAN_MOTION_DOT":"0.00000218","TIME_SYSTEM":"UTC","ARG_OF_PERICENTER":"55.5514","REF_FRAME":"TEME","REV_AT_EPOCH":"4592","BSTAR":"0.00003177100000","CENTER_NAME":"EARTH","TLE_LINE1":"1 49749U 21115AB  22273.73023284  .00000218  00000-0  31771-4 0  9992","OBJECT_NAME":"STARLINK-3250","EPOCH":"2022-09-30T17:31:32.117376","TLE_LINE2":"2 49749  53.2174  27.3381 0001843  55.5514 304.5652 15.08840089 45920","ELEMENT_SET_NO":"999","MEAN_MOTION_DDOT":"0.0000000000000","ECCENTRICITY":"0.00018430","OBJECT_TYPE":"PAYLOAD","PERIOD":"95.438","OBJECT_ID":"2021-115AB","EPHEMERIS_TYPE":"0","MEAN_MOTION":"15.08840089","PERIAPSIS":"538.470","RCS_SIZE":"LARGE","GP_ID":"213906340","DECAY_DATE":null,"RA_OF_ASC_NODE":"27.3381","COUNTRY_CODE":"US","SEMIMAJOR_AXIS":"6917.880","APOAPSIS":"541.020","INCLINATION":"53.2174","NORAD_CAT_ID":"49749","MEAN_ANOMALY":"304.5652","LAUNCH_DATE":"2021-12-02","MEAN_ELEMENT_THEORY":"SGP4","CLASSIFICATION_TYPE":"U"},{"MEAN_ANOMALY":"310.1572","CLASSIFICATION_TYPE":"U","MEAN_ELEMENT_THEORY":"SGP4","LAUNCH_DATE":"2021-12-02","NORAD_CAT_ID":"49750","SEMIMAJOR_AXIS":"6917.849","INCLINATION":"53.2172","APOAPSIS":"540.966","COUNTRY_CODE":"US","RA_OF_ASC_NODE":"26.9697","RCS_SIZE":"LARGE","DECAY_DATE":null,"GP_ID":"213907591","MEAN_MOTION":"15.08850243","PERIAPSIS":"538.462","PERIOD":"95.437","OBJECT_ID":"2021-115AC","OBJECT_TYPE":"PAYLOAD","EPHEMERIS_TYPE":"0","ECCENTRICITY":"0.00018100","MEAN_MOTION_DDOT":"0.0000000000000","EPOCH":"2022-09-30T19:33:25.734816","TLE_LINE2":"2 49750  53.2172  26.9697 0001810  49.9578 310.1572 15.08850243 45945","ELEMENT_SET_NO":"999","OBJECT_NAME":"STARLINK-3236","TLE_LINE1":"1 49750U 21115AC  22273.81488119  .00011957  00000-0  76789-3 0  9994","CENTER_NAME":"EARTH","BSTAR":"0.00076789000000","ARG_OF_PERICENTER":"49.9578","REF_FRAME":"TEME","REV_AT_EPOCH":"4594","FILE":"3587966","SITE":"AFETR","MEAN_MOTION_DOT":"0.00011957","TIME_SYSTEM":"UTC"}];
